SHIJIAN-23 (SJ-23)      
1 55131U 23002A   26087.77423548 -.00000193  00000+0  00000+0 0  9997
2 55131   3.5116  79.3148 0005797 264.3979 269.2247  1.00478693 11702
